{
"type": "FeatureCollection",
"name": "akron-co-wheat-fallow-odd",
"crs": { "type": "name", "properties": { "name": "urn:ogc:def:crs:OGC:1.3:CRS84" } },
"features": [
{ "type": "Feature", "properties": { }, "geometry": { "type": "Polygon", "coordinates": [ [ [ -103.147564659150333, 40.122643841361409 ], [ -103.144690415464808, 40.125137992275079 ], [ -103.143717774365939, 40.125013100866894 ], [ -103.141884024207286, 40.125565860982888 ], [ -103.138025007599794, 40.125067709350034 ], [ -103.137333559637938, 40.126361142565671 ], [ -103.136029863255459, 40.125787967594974 ], [ -103.136018121927023, 40.123025724940113 ], [ -103.141872083543618, 40.122698623527164 ], [ -103.142252867470276, 40.122945525741763 ], [ -103.141957284432252, 40.12397338440212 ], [ -103.143025341581577, 40.124512790539029 ], [ -103.144272110943319, 40.123934795783292 ], [ -103.144186049180149, 40.122835756459089 ], [ -103.147564659150333, 40.122643841361409 ] ] ] } }
]
}
