{
"type": "FeatureCollection",
"name": "wheat_fallow_even",
"crs": { "type": "name", "properties": { "name": "urn:ogc:def:crs:OGC:1.3:CRS84" } },
"features": [
{ "type": "Feature", "properties": { }, "geometry": { "type": "Polygon", "coordinates": [ [ [ -103.019887279944243, 40.113454493630528 ], [ -103.020425879318822, 40.113827176042953 ], [ -103.020081888159424, 40.119398472471694 ], [ -103.014606066279171, 40.119655934491782 ], [ -103.013174310517968, 40.119246751565981 ], [ -103.012911663357997, 40.115918894093596 ], [ -103.01334957810468, 40.113771178537554 ], [ -103.019887279944243, 40.113454493630528 ] ] ] } }
]
}
