{"type":"FeatureCollection","features":[{"type":"Feature","properties":{},"geometry":{"type":"Polygon","coordinates":[[[-91.757458,42.388497],[-91.7563,42.388489],[-91.7563,42.386714],[-91.754583,42.38669],[-91.753714,42.386674],[-91.753683,42.390628],[-91.753677,42.390628],[-91.75366,42.392118],[-91.7541,42.392158],[-91.75409,42.392681],[-91.754755,42.392704],[-91.754766,42.392419],[-91.755774,42.392451],[-91.755946,42.39215],[-91.755999,42.391191],[-91.756021,42.390628],[-91.756017,42.390628],[-91.756032,42.390303],[-91.757115,42.390319],[-91.757158,42.389574],[-91.757426,42.389519],[-91.757458,42.388497]]]}}]}