{"type":"FeatureCollection","features":[{"type":"Feature","properties":{},"geometry":{"type":"Polygon","coordinates":[[[-83.458001,31.362405],[-83.458685,31.361394],[-83.459722,31.360935],[-83.459851,31.356084],[-83.458704,31.355973],[-83.458556,31.354788],[-83.455817,31.354804],[-83.455743,31.356336],[-83.456613,31.356732],[-83.458149,31.357854],[-83.457538,31.357885],[-83.457112,31.358186],[-83.457778,31.359592],[-83.458334,31.359971],[-83.458389,31.360224],[-83.457945,31.361346],[-83.457353,31.36201],[-83.458001,31.362405]]]}}]}