{
"type": "FeatureCollection",
"name": "example_field_covercrop",
"crs": { "type": "name", "properties": { "name": "urn:ogc:def:crs:OGC:1.3:CRS84" } },
"features": [
{ "type": "Feature", "properties": { "field_id": "MD-CAROLINE-001", "name": "Example Field 2 (Caroline County, MD)" }, "geometry": { "type": "MultiPolygon", "coordinates": [ [ [ [ -75.921971938903852, 38.930118751418114 ], [ -75.920213858683113, 38.930073416686255 ], [ -75.919885884863007, 38.933631981521117 ], [ -75.919348293130412, 38.93435901840077 ], [ -75.916716373573436, 38.935381979930561 ], [ -75.915006036754292, 38.934472360141704 ], [ -75.914719877113967, 38.933580437162121 ], [ -75.91145504028033, 38.933070940478757 ], [ -75.910084047160524, 38.93418699446358 ], [ -75.907502773541211, 38.934583779625612 ], [ -75.906662243584663, 38.933647919399618 ], [ -75.906407922016626, 38.931922146833848 ], [ -75.911910334149383, 38.930107268409444 ], [ -75.913500923047408, 38.93091629199975 ], [ -75.914081976703116, 38.931830821249342 ], [ -75.917799672821943, 38.931517504137034 ], [ -75.918459209018692, 38.931068505959743 ], [ -75.918790643074701, 38.928500901386428 ], [ -75.922385675140816, 38.927892186199045 ], [ -75.921971938903852, 38.930118751418114 ] ] ], [ [ [ -75.914164146915738, 38.936202938426334 ], [ -75.91417525091714, 38.936246183529533 ], [ -75.914151493150328, 38.93624812466075 ], [ -75.914164146915738, 38.936202938426334 ] ] ] ] } }
]
}
