{
"type": "FeatureCollection",
"name": "example_field_overgrown",
"crs": { "type": "name", "properties": { "name": "urn:ogc:def:crs:OGC:1.3:CRS84" } },
"features": [
{ "type": "Feature", "properties": { "field_id": "IA-STORY-001-OVERGROWN", "name": "Example Field 3 - boundary drawn too wide (Story County, IA)" }, "geometry": { "type": "Polygon", "coordinates": [ [ [ -93.734318655353803, 42.03333561798074 ], [ -93.737099216280754, 42.035135117357179 ], [ -93.737939449810483, 42.036536375221957 ], [ -93.737728475398086, 42.043051192606363 ], [ -93.736555920074252, 42.044578449254679 ], [ -93.734103448826929, 42.045053415752804 ], [ -93.722907107377338, 42.04376411363824 ], [ -93.721082057685479, 42.04293299424512 ], [ -93.72040995159017, 42.041684252638653 ], [ -93.720204830755947, 42.036372980002191 ], [ -93.722095855854434, 42.033460602317092 ], [ -93.723879421747569, 42.032923161798394 ], [ -93.732639336287633, 42.0328055770633 ], [ -93.734318655353803, 42.03333561798074 ] ] ] } }
]
}
