{
"type": "FeatureCollection",
"name": "example_field",
"crs": { "type": "name", "properties": { "name": "urn:ogc:def:crs:OGC:1.3:CRS84" } },
"features": [
{ "type": "Feature", "properties": { "field_id": "IA-STORY-001", "name": "Example Field (Story County, IA)" }, "geometry": { "type": "Polygon", "coordinates": [ [ [ -93.723561238784242, 42.041489982976003 ], [ -93.723357071897141, 42.036556567123363 ], [ -93.724129895789773, 42.035240233810683 ], [ -93.727169472765794, 42.035293716617893 ], [ -93.727337270175639, 42.036301450448235 ], [ -93.729105402511252, 42.036400350250808 ], [ -93.729483492889671, 42.035213162299151 ], [ -93.732284678007701, 42.035115285618048 ], [ -93.732780065544247, 42.036653906052486 ], [ -93.734787301450297, 42.036720889406453 ], [ -93.734591520119594, 42.04275686158757 ], [ -93.723561238784242, 42.041489982976003 ] ] ] } }
]
}
