{
"type": "FeatureCollection",
"name": "jefferson-ga-conv-cover",
"crs": { "type": "name", "properties": { "name": "urn:ogc:def:crs:OGC:1.3:CRS84" } },
"features": [
{ "type": "Feature", "properties": { "field_id": "field_01", "area_ha": 91.208532093695922 }, "geometry": { "type": "Polygon", "coordinates": [ [ [ -82.3753684, 32.9184034 ], [ -82.378544100000013, 32.9169984 ], [ -82.378544100000013, 32.9160437 ], [ -82.37822220000001, 32.9157015 ], [ -82.3779648, 32.9151791 ], [ -82.3776858, 32.9141343 ], [ -82.3769777, 32.9130535 ], [ -82.376393, 32.9107883 ], [ -82.3747783, 32.908595 ], [ -82.3737845, 32.9089294 ], [ -82.3727908, 32.9087594 ], [ -82.372949, 32.9063297 ], [ -82.370004, 32.907307 ], [ -82.3685824, 32.9068589 ], [ -82.3667317, 32.9072034 ], [ -82.3664286, 32.9080963 ], [ -82.3669838, 32.9089891 ], [ -82.3680942, 32.9106307 ], [ -82.3681693, 32.9128329 ], [ -82.3687648, 32.9137898 ], [ -82.3695319, 32.9143865 ], [ -82.3706048, 32.9175208 ], [ -82.3722141, 32.9184394 ], [ -82.3729222, 32.9184574 ], [ -82.3739307, 32.9180612 ], [ -82.3745959, 32.9180972 ], [ -82.3753684, 32.9184034 ] ] ] } }
]
}
