{"type":"FeatureCollection","features":[{"type":"Feature","properties":{"@circle":{"type":"Mercator","center":[-101.6438691,33.6928824]}},"geometry":{"type":"Polygon","coordinates":[[[-101.639938,33.692882],[-101.639946,33.693088],[-101.639969,33.693292],[-101.640008,33.693495],[-101.640062,33.693696],[-101.64013,33.693893],[-101.640214,33.694086],[-101.640312,33.694275],[-101.640424,33.694458],[-101.64055,33.694635],[-101.640689,33.694805],[-101.64084,33.694967],[-101.641003,33.695121],[-101.641178,33.695267],[-101.641363,33.695402],[-101.641558,33.695528],[-101.641763,33.695644],[-101.641975,33.695749],[-101.642195,33.695842],[-101.642422,33.695923],[-101.642654,33.695993],[-101.642892,33.69605],[-101.643133,33.696095],[-101.643376,33.696127],[-101.643622,33.696147],[-101.643869,33.696153],[-101.644116,33.696147],[-101.644362,33.696127],[-101.644606,33.696095],[-101.644847,33.69605],[-101.645084,33.695993],[-101.645316,33.695923],[-101.645543,33.695842],[-101.645763,33.695749],[-101.645976,33.695644],[-101.64618,33.695528],[-101.646375,33.695402],[-101.64656,33.695267],[-101.646735,33.695121],[-101.646898,33.694967],[-101.647049,33.694805],[-101.647188,33.694635],[-101.647314,33.694458],[-101.647426,33.694275],[-101.647524,33.694086],[-101.647608,33.693893],[-101.647677,33.693696],[-101.647731,33.693495],[-101.647769,33.693292],[-101.647792,33.693088],[-101.6478,33.692882],[-101.647792,33.692677],[-101.647769,33.692472],[-101.647731,33.692269],[-101.647677,33.692069],[-101.647608,33.691872],[-101.647524,33.691678],[-101.647426,33.69149],[-101.647314,33.691307],[-101.647188,33.69113],[-101.647049,33.69096],[-101.646898,33.690797],[-101.646735,33.690643],[-101.64656,33.690498],[-101.646375,33.690362],[-101.64618,33.690236],[-101.645976,33.690121],[-101.645763,33.690016],[-101.645543,33.689923],[-101.645316,33.689841],[-101.645084,33.689772],[-101.644847,33.689714],[-101.644606,33.689669],[-101.644362,33.689637],[-101.644116,33.689618],[-101.643869,33.689612],[-101.643622,33.689618],[-101.643376,33.689637],[-101.643133,33.689669],[-101.642892,33.689714],[-101.642654,33.689772],[-101.642422,33.689841],[-101.642195,33.689923],[-101.641975,33.690016],[-101.641763,33.690121],[-101.641558,33.690236],[-101.641363,33.690362],[-101.641178,33.690498],[-101.641003,33.690643],[-101.64084,33.690797],[-101.640689,33.69096],[-101.64055,33.69113],[-101.640424,33.691307],[-101.640312,33.69149],[-101.640214,33.691678],[-101.64013,33.691872],[-101.640062,33.692069],[-101.640008,33.692269],[-101.639969,33.692472],[-101.639938,33.692882]]]}}]}