{
"type": "FeatureCollection",
"name": "mitchell-ga-conventional",
"crs": { "type": "name", "properties": { "name": "urn:ogc:def:crs:OGC:1.3:CRS84" } },
"features": [
{ "type": "Feature", "properties": { "field_id": "field_01", "area_ha": 20.301741461942719 }, "geometry": { "type": "Polygon", "coordinates": [ [ [ -84.0202899, 31.1691096 ], [ -84.020129, 31.1689535 ], [ -84.0199681, 31.1683201 ], [ -84.019667700000014, 31.1680906 ], [ -84.019195599999989, 31.1679529 ], [ -84.0183802, 31.1678611 ], [ -84.0179189, 31.1677876 ], [ -84.017715, 31.1676408 ], [ -84.0175326, 31.1676316 ], [ -84.0171142, 31.1675398 ], [ -84.0167709, 31.1676499 ], [ -84.016202299999989, 31.1676408 ], [ -84.0155693, 31.1675122 ], [ -84.013166, 31.1674939 ], [ -84.0129621, 31.1676499 ], [ -84.0129621, 31.1680447 ], [ -84.0131875, 31.1687057 ], [ -84.01352, 31.1690912 ], [ -84.0141209, 31.1692289 ], [ -84.014442699999989, 31.1696145 ], [ -84.0150221, 31.1699541 ], [ -84.0152903, 31.1700092 ], [ -84.0156014, 31.1700918 ], [ -84.0165456, 31.1703672 ], [ -84.0171571, 31.1702295 ], [ -84.0174575, 31.1702571 ], [ -84.0181764, 31.1706794 ], [ -84.0182836, 31.1709915 ], [ -84.018509, 31.1711843 ], [ -84.0188737, 31.1711934 ], [ -84.0195926, 31.1712026 ], [ -84.0202041, 31.1711659 ], [ -84.0203972, 31.1710741 ], [ -84.0205474, 31.1708354 ], [ -84.020762, 31.1700827 ], [ -84.0209122, 31.1692381 ], [ -84.0202899, 31.1691096 ] ] ] } }
]
}
