{
"type": "FeatureCollection",
"name": "mitchell-ga-conservation",
"crs": { "type": "name", "properties": { "name": "urn:ogc:def:crs:OGC:1.3:CRS84" } },
"features": [
{ "type": "Feature", "properties": { "field_id": "field_01", "area_ha": 84.58125090207308 }, "geometry": { "type": "Polygon", "coordinates": [ [ [ -84.093924, 31.2901827 ], [ -84.0925078, 31.2893759 ], [ -84.0907054, 31.2887524 ], [ -84.0874009, 31.2892659 ], [ -84.0851693, 31.2905861 ], [ -84.0849547, 31.2942167 ], [ -84.085341, 31.2945834 ], [ -84.0849547, 31.2949134 ], [ -84.0853839, 31.2960135 ], [ -84.0864997, 31.2972604 ], [ -84.0879159, 31.2980671 ], [ -84.089375, 31.2981038 ], [ -84.0923791, 31.2979571 ], [ -84.0928511, 31.2976637 ], [ -84.094439, 31.2965636 ], [ -84.0953832, 31.2952801 ], [ -84.0953832, 31.2922364 ], [ -84.093924, 31.2901827 ] ] ] } }
]
}
