{
"type": "FeatureCollection",
"name": "screven-ga-notill-bare",
"crs": { "type": "name", "properties": { "name": "urn:ogc:def:crs:OGC:1.3:CRS84" } },
"features": [
{ "type": "Feature", "properties": { "field_id": "field_01", "area_ha": 29.518584370864929 }, "geometry": { "type": "Polygon", "coordinates": [ [ [ -81.5185113, 32.7924717 ], [ -81.5186508, 32.7920117 ], [ -81.519101400000011, 32.7909384 ], [ -81.5192945, 32.7899373 ], [ -81.5191765, 32.7897118 ], [ -81.5178569, 32.7891075 ], [ -81.5175672, 32.7892067 ], [ -81.5172775, 32.7891887 ], [ -81.5167411, 32.7886655 ], [ -81.5167196, 32.7880252 ], [ -81.5165158, 32.7876644 ], [ -81.5162368, 32.7876103 ], [ -81.515957899999989, 32.7876283 ], [ -81.5141018, 32.7871593 ], [ -81.512074, 32.7897479 ], [ -81.5128894, 32.7905235 ], [ -81.5128465, 32.7909204 ], [ -81.5129216, 32.791678 ], [ -81.5136726, 32.7925438 ], [ -81.513897899999989, 32.7924717 ], [ -81.5141018, 32.7925077 ], [ -81.5140696, 32.793094 ], [ -81.5144022, 32.7933285 ], [ -81.5185113, 32.7924717 ] ] ] } }
]
}
