{
    "type": "FeatureCollection",
    "features": [
        {
            "type": "Feature",
            "properties": {},
            "geometry": {
                "type": "Polygon",
                "coordinates": [
                    [
                        [
                            -83.549014,
                            31.458826
                        ],
                        [
                            -83.549109,
                            31.456046
                        ],
                        [
                            -83.546979,
                            31.455947
                        ],
                        [
                            -83.547043,
                            31.459038
                        ],
                        [
                            -83.548463,
                            31.459101
                        ],
                        [
                            -83.549014,
                            31.458826
                        ]
                    ]
                ]
            }
        }
    ]
}