{"type":"FeatureCollection","features":[{"type":"Feature","properties":{"@circle":{"type":"Mercator","center":[-119.1816728,46.3489716]}},"geometry":{"type":"Polygon","coordinates":[[[-119.178243,46.348972],[-119.17825,46.34912],[-119.17827,46.349268],[-119.178304,46.349415],[-119.178351,46.34956],[-119.178411,46.349703],[-119.178484,46.349843],[-119.178569,46.34998],[-119.178667,46.350112],[-119.178777,46.35024],[-119.178898,46.350363],[-119.17903,46.350481],[-119.179173,46.350592],[-119.179325,46.350697],[-119.179487,46.350796],[-119.179657,46.350887],[-119.179835,46.350971],[-119.18002,46.351046],[-119.180212,46.351114],[-119.18041,46.351173],[-119.180613,46.351223],[-119.18082,46.351265],[-119.18103,46.351297],[-119.181243,46.35132],[-119.181457,46.351334],[-119.181673,46.351339],[-119.181888,46.351334],[-119.182103,46.35132],[-119.182316,46.351297],[-119.182526,46.351265],[-119.182733,46.351223],[-119.182935,46.351173],[-119.183133,46.351114],[-119.183325,46.351046],[-119.183511,46.350971],[-119.183689,46.350887],[-119.183859,46.350796],[-119.184021,46.350697],[-119.184173,46.350592],[-119.184316,46.350481],[-119.184448,46.350363],[-119.184569,46.35024],[-119.184678,46.350112],[-119.184776,46.34998],[-119.184862,46.349843],[-119.184935,46.349703],[-119.184995,46.34956],[-119.185042,46.349415],[-119.185076,46.349268],[-119.185096,46.34912],[-119.185103,46.348972],[-119.185096,46.348823],[-119.185076,46.348675],[-119.185042,46.348528],[-119.184995,46.348383],[-119.184935,46.34824],[-119.184862,46.3481],[-119.184776,46.347964],[-119.184678,46.347831],[-119.184569,46.347703],[-119.184448,46.34758],[-119.184316,46.347462],[-119.184173,46.347351],[-119.184021,46.347246],[-119.183859,46.347147],[-119.183689,46.347056],[-119.183511,46.346973],[-119.183325,46.346897],[-119.183133,46.346829],[-119.182935,46.34677],[-119.182733,46.34672],[-119.182526,46.346678],[-119.182316,46.346646],[-119.182103,46.346623],[-119.181888,46.346609],[-119.181673,46.346604],[-119.181457,46.346609],[-119.181243,46.346623],[-119.18103,46.346646],[-119.18082,46.346678],[-119.180613,46.34672],[-119.18041,46.34677],[-119.180212,46.346829],[-119.18002,46.346897],[-119.179835,46.346973],[-119.179657,46.347056],[-119.179487,46.347147],[-119.179325,46.347246],[-119.179173,46.347351],[-119.17903,46.347462],[-119.178898,46.34758],[-119.178777,46.347703],[-119.178667,46.347831],[-119.178569,46.347964],[-119.178484,46.3481],[-119.178411,46.34824],[-119.178351,46.348383],[-119.178304,46.348528],[-119.17827,46.348675],[-119.178243,46.348972]]]}}]}